[{"OBJECT_NAME":"HONGHU 2","OBJECT_ID":"2023-193C","EPOCH":"2026-03-09T23:21:07.139520","MEAN_MOTION":15.21543878,"ECCENTRICITY":0.00399876,"INCLINATION":97.2779,"RA_OF_ASC_NODE":62.3901,"ARG_OF_PERICENTER":264.1736,"MEAN_ANOMALY":95.4941,"EPHEMERIS_TYPE":0,"CLASSIFICATION_TYPE":"U","NORAD_CAT_ID":58555,"ELEMENT_SET_NO":999,"REV_AT_EPOCH":8691,"BSTAR":0.0061775359,"MEAN_MOTION_DOT":0.00144707,"MEAN_MOTION_DDOT":0},{"OBJECT_NAME":"STARLINK-32392","OBJECT_ID":"2024-171Q","EPOCH":"2026-03-09T23:17:43.655424","MEAN_MOTION":15.30191064,"ECCENTRICITY":9.905e-5,"INCLINATION":53.1605,"RA_OF_ASC_NODE":320.9881,"ARG_OF_PERICENTER":82.8112,"MEAN_ANOMALY":277.3002,"EPHEMERIS_TYPE":0,"CLASSIFICATION_TYPE":"U","NORAD_CAT_ID":61214,"ELEMENT_SET_NO":999,"REV_AT_EPOCH":8241,"BSTAR":9.8913723e-5,"MEAN_MOTION_DOT":2.571e-5,"MEAN_MOTION_DDOT":0}]
